{
  "type": "FeatureCollection",
  "features": [
    {
      "type": "Feature",
      "properties": {
        "norad_id": 39766,
        "name": "ALOS-2",
        "group": "resource",
        "lat": 3.870283810345448,
        "lon": 75.25009031181804,
        "alt_km": 633.6964253638325,
        "timestamp": "2025-12-06T20:37:55.716097+00:00",
        "meta_object_name": "ALOS-2",
        "meta_object_id": "2014-029A",
        "meta_epoch": "2025-12-06T12:29:54.834720",
        "meta_mean_motion": 14.79466407,
        "meta_eccentricity": 0.00015175,
        "meta_inclination": 97.9236,
        "meta_ra_of_asc_node": 75.4559,
        "meta_arg_of_pericenter": 105.6706,
        "meta_mean_anomaly": 254.4673,
        "meta_ephemeris_type": 0,
        "meta_classification_type": "U",
        "meta_norad_cat_id": 39766,
        "meta_element_set_no": 999,
        "meta_rev_at_epoch": 62309,
        "meta_bstar": 0.00049410274,
        "meta_mean_motion_dot": 3.64e-05,
        "meta_mean_motion_ddot": 0,
        "tle_line1": "1 39766U 14029A   25340.52077355  .00003640  00000+0  49410-3 0  9998",
        "tle_line2": "2 39766  97.9236  75.4559 0001517 105.6706 254.4673 14.79466407623092"
      },
      "geometry": {
        "type": "Point",
        "coordinates": [
          75.25009031181804,
          3.870283810345448
        ]
      }
    },
    {
      "type": "Feature",
      "properties": {
        "norad_id": 40010,
        "name": "KAZEOSAT 2",
        "group": "resource",
        "lat": 25.837959133696792,
        "lon": 9.160823819441465,
        "alt_km": 610.9175199007914,
        "timestamp": "2025-12-06T20:37:55.716108+00:00",
        "meta_object_name": "KAZEOSAT 2",
        "meta_object_id": "2014-033A",
        "meta_epoch": "2025-12-06T13:28:23.450592",
        "meta_mean_motion": 14.85152672,
        "meta_eccentricity": 0.00073915,
        "meta_inclination": 97.5516,
        "meta_ra_of_asc_node": 185.1949,
        "meta_arg_of_pericenter": 229.4973,
        "meta_mean_anomaly": 130.56,
        "meta_ephemeris_type": 0,
        "meta_classification_type": "U",
        "meta_norad_cat_id": 40010,
        "meta_element_set_no": 999,
        "meta_rev_at_epoch": 62036,
        "meta_bstar": 0.00017485321,
        "meta_mean_motion_dot": 1.447e-05,
        "meta_mean_motion_ddot": 0,
        "tle_line1": "1 40010U 14033A   25340.56138253  .00001447  00000+0  17485-3 0  9996",
        "tle_line2": "2 40010  97.5516 185.1949 0007391 229.4973 130.5600 14.85152672620366"
      },
      "geometry": {
        "type": "Point",
        "coordinates": [
          9.160823819441465,
          25.837959133696792
        ]
      }
    },
    {
      "type": "Feature",
      "properties": {
        "norad_id": 40011,
        "name": "HODOYOSHI-4",
        "group": "resource",
        "lat": -12.835517385825497,
        "lon": -11.696296331557551,
        "alt_km": 596.3508618449769,
        "timestamp": "2025-12-06T20:37:55.716119+00:00",
        "meta_object_name": "HODOYOSHI-4",
        "meta_object_id": "2014-033B",
        "meta_epoch": "2025-12-06T14:55:23.109600",
        "meta_mean_motion": 14.87448122,
        "meta_eccentricity": 0.00228284,
        "meta_inclination": 97.5416,
        "meta_ra_of_asc_node": 169.8074,
        "meta_arg_of_pericenter": 221.4842,
        "meta_mean_anomaly": 138.4643,
        "meta_ephemeris_type": 0,
        "meta_classification_type": "U",
        "meta_norad_cat_id": 40011,
        "meta_element_set_no": 999,
        "meta_rev_at_epoch": 62017,
        "meta_bstar": 0.0003996921,
        "meta_mean_motion_dot": 3.584e-05,
        "meta_mean_motion_ddot": 0,
        "tle_line1": "1 40011U 14033B   25340.62179525  .00003584  00000+0  39969-3 0  9996",
        "tle_line2": "2 40011  97.5416 169.8074 0022828 221.4842 138.4643 14.87448122620176"
      },
      "geometry": {
        "type": "Point",
        "coordinates": [
          -11.696296331557551,
          -12.835517385825497
        ]
      }
    },
    {
      "type": "Feature",
      "properties": {
        "norad_id": 40013,
        "name": "DEIMOS-2",
        "group": "resource",
        "lat": -53.519255749798695,
        "lon": 26.440720195961518,
        "alt_km": 596.3418384467313,
        "timestamp": "2025-12-06T20:37:55.716129+00:00",
        "meta_object_name": "DEIMOS-2",
        "meta_object_id": "2014-033D",
        "meta_epoch": "2025-12-06T14:45:39.161376",
        "meta_mean_motion": 14.92933384,
        "meta_eccentricity": 9.827e-05,
        "meta_inclination": 97.6071,
        "meta_ra_of_asc_node": 216.617,
        "meta_arg_of_pericenter": 94.2977,
        "meta_mean_anomaly": 265.8355,
        "meta_ephemeris_type": 0,
        "meta_classification_type": "U",
        "meta_norad_cat_id": 40013,
        "meta_element_set_no": 999,
        "meta_rev_at_epoch": 60898,
        "meta_bstar": 0.00046925981,
        "meta_mean_motion_dot": 4.816e-05,
        "meta_mean_motion_ddot": 0,
        "tle_line1": "1 40013U 14033D   25340.61503659  .00004816  00000+0  46926-3 0  9996",
        "tle_line2": "2 40013  97.6071 216.6170 0000982  94.2977 265.8355 14.92933384608981"
      },
      "geometry": {
        "type": "Point",
        "coordinates": [
          26.440720195961518,
          -53.519255749798695
        ]
      }
    },
    {
      "type": "Feature",
      "properties": {
        "norad_id": 40015,
        "name": "HODOYOSHI-3",
        "group": "resource",
        "lat": 5.376252174430647,
        "lon": -32.32770058045428,
        "alt_km": 617.9480052632125,
        "timestamp": "2025-12-06T20:37:55.716140+00:00",
        "meta_object_name": "HODOYOSHI-3",
        "meta_object_id": "2014-033F",
        "meta_epoch": "2025-12-06T13:22:33.636000",
        "meta_mean_motion": 14.84773828,
        "meta_eccentricity": 0.00318313,
        "meta_inclination": 97.6196,
        "meta_ra_of_asc_node": 146.6614,
        "meta_arg_of_pericenter": 269.1116,
        "meta_mean_anomaly": 90.6452,
        "meta_ephemeris_type": 0,
        "meta_classification_type": "U",
        "meta_norad_cat_id": 40015,
        "meta_element_set_no": 999,
        "meta_rev_at_epoch": 61903,
        "meta_bstar": 0.00039249437,
        "meta_mean_motion_dot": 3.307e-05,
        "meta_mean_motion_ddot": 0,
        "tle_line1": "1 40015U 14033F   25340.55733375  .00003307  00000+0  39249-3 0  9995",
        "tle_line2": "2 40015  97.6196 146.6614 0031831 269.1116  90.6452 14.84773828619037"
      },
      "geometry": {
        "type": "Point",
        "coordinates": [
          -32.32770058045428,
          5.376252174430647
        ]
      }
    },
    {
      "type": "Feature",
      "properties": {
        "norad_id": 40053,
        "name": "SPOT 7",
        "group": "resource",
        "lat": 45.30257668623179,
        "lon": 34.80418125566028,
        "alt_km": 686.2234872805502,
        "timestamp": "2025-12-06T20:37:55.716151+00:00",
        "meta_object_name": "SPOT 7",
        "meta_object_id": "2014-034A",
        "meta_epoch": "2025-12-06T15:29:26.865312",
        "meta_mean_motion": 14.60722244,
        "meta_eccentricity": 0.00015282,
        "meta_inclination": 98.0915,
        "meta_ra_of_asc_node": 42.8612,
        "meta_arg_of_pericenter": 94.9925,
        "meta_mean_anomaly": 265.145,
        "meta_ephemeris_type": 0,
        "meta_classification_type": "U",
        "meta_norad_cat_id": 40053,
        "meta_element_set_no": 999,
        "meta_rev_at_epoch": 60902,
        "meta_bstar": 0.00024617365,
        "meta_mean_motion_dot": 1.154e-05,
        "meta_mean_motion_ddot": 0,
        "tle_line1": "1 40053U 14034A   25340.64544983  .00001154  00000+0  24617-3 0  9994",
        "tle_line2": "2 40053  98.0915  42.8612 0001528  94.9925 265.1450 14.60722244609025"
      },
      "geometry": {
        "type": "Point",
        "coordinates": [
          34.80418125566028,
          45.30257668623179
        ]
      }
    },
    {
      "type": "Feature",
      "properties": {
        "norad_id": 40072,
        "name": "SKYSAT-B",
        "group": "resource",
        "lat": 40.49648530195513,
        "lon": 111.46975167348386,
        "alt_km": 599.778506328641,
        "timestamp": "2025-12-06T20:37:55.716162+00:00",
        "meta_object_name": "SKYSAT-B",
        "meta_object_id": "2014-037D",
        "meta_epoch": "2025-12-06T13:33:03.865248",
        "meta_mean_motion": 14.8729167,
        "meta_eccentricity": 0.00056411,
        "meta_inclination": 98.3603,
        "meta_ra_of_asc_node": 283.9447,
        "meta_arg_of_pericenter": 168.7784,
        "meta_mean_anomaly": 191.3557,
        "meta_ephemeris_type": 0,
        "meta_classification_type": "U",
        "meta_norad_cat_id": 40072,
        "meta_element_set_no": 999,
        "meta_rev_at_epoch": 61732,
        "meta_bstar": 0.0003397521,
        "meta_mean_motion_dot": 3.005e-05,
        "meta_mean_motion_ddot": 0,
        "tle_line1": "1 40072U 14037D   25340.56462807  .00003005  00000+0  33975-3 0  9997",
        "tle_line2": "2 40072  98.3603 283.9447 0005641 168.7784 191.3557 14.87291670617323"
      },
      "geometry": {
        "type": "Point",
        "coordinates": [
          111.46975167348386,
          40.49648530195513
        ]
      }
    }
  ]
}